STARLINK-31510          
1 59575U 24076M   26068.17949132  .00002728  00000+0  10858-3 0  9991
2 59575  43.0034   8.5180 0000642 282.3748  77.7032 15.27587823106466
FLOCK 4G-8              
1 62613U 25009E   26068.72381419  .00013559  00000+0  50438-3 0  9996
2 62613  97.4045 151.2834 0003050 315.2538  44.8455 15.27623414 63721
